OBJECT_NAME,OBJECT_ID,EPOCH,MEAN_MOTION,ECCENTRICITY,INCLINATION,RA_OF_ASC_NODE,ARG_OF_PERICENTER,MEAN_ANOMALY,EPHEMERIS_TYPE,CLASSIFICATION_TYPE,NORAD_CAT_ID,ELEMENT_SET_NO,REV_AT_EPOCH,BSTAR,MEAN_MOTION_DOT,MEAN_MOTION_DDOT
YAMAL 401,2014-082A,2026-06-24T23:20:19.212576,1.00270538,.000083,0.0090,287.4348,185.3410,240.3727,0,U,40345,999,4199,0,-.219E-5,0
ASTRA 2G,2014-089A,2026-06-25T04:10:44.026752,1.00272475,.0004858,0.0500,18.9569,52.9573,292.2533,0,U,40364,999,4204,0,.159E-5,0
FENGYUN 2G,2014-090A,2026-06-23T21:41:59.362656,1.00269968,.00035936,5.6568,72.7393,152.9330,111.5572,0,U,40367,999,4206,0,-.299E-5,0
MUOS-3,2015-002A,2026-06-25T01:27:38.724768,1.00271013,.0052483,4.5353,43.5534,177.8333,58.2817,0,U,40374,999,4166,0,-.123E-5,0
INMARSAT 5-F2,2015-005A,2026-06-24T02:07:07.482720,1.00272018,.00004029,0.0185,17.6357,305.3812,285.9979,0,U,40384,999,4106,0,-.278E-5,0
ABS-3A,2015-010A,2026-06-24T01:54:38.704032,1.00270916,.00017639,0.0420,53.6904,355.2482,248.9571,0,U,40424,999,4144,0,0,0
EUTELSAT 115 WEST B,2015-010B,2026-06-24T04:46:38.684640,1.00270289,.00002991,0.0112,153.7799,60.4448,14.8861,0,U,40425,999,4146,0,-.17E-6,0
EXPRESS-AM7,2015-012A,2026-06-25T04:14:06.205344,1.00276117,.0003335,0.0183,338.2012,126.5663,272.1002,0,U,40505,999,4108,0,.16E-5,0
BEIDOU-3S IGSO-1S,2015-019A,2026-06-23T19:06:37.058400,1.00249795,.00388743,49.1813,295.3807,191.2374,162.8236,0,U,40549,999,4113,0,-.18E-5,0
THOR 7,2015-022A,2026-06-25T04:02:29.817024,1.00271362,.000262,0.0117,47.2378,41.4950,244.5390,0,U,40613,999,4089,0,.1E-7,0
TURKMENALEM52E/MONACOSAT,2015-023A,2026-06-25T04:17:28.382208,1.00275298,.0003058,0.0182,63.1688,27.5075,299.0573,0,U,40617,999,4092,0,.113E-5,0
DIRECTV 15,2015-026A,2026-06-25T03:33:17.129088,1.00270309,.0000544,0.0168,58.8380,339.4605,185.4343,0,U,40663,999,4054,0,-.93E-6,0
SKY MEXICO-1,2015-026B,2026-06-25T03:40:08.970240,1.00271161,.0002517,0.0187,338.1849,132.4438,138.9017,0,U,40664,999,4053,0,-.225E-5,0
METEOSAT-11 (MSG-4),2015-034A,2026-06-25T04:05:22.040736,1.00265566,.0002283,3.2206,71.0589,347.1453,285.9137,0,U,40732,999,729,0,.69E-6,0
STAR ONE C4,2015-034B,2026-06-24T05:27:50.739840,1.00271482,.00021275,0.0258,25.3940,39.0528,219.9095,0,U,40733,999,4008,0,-.258E-5,0
WGS F7 (USA 263),2015-036A,2026-06-24T19:38:14.746272,1.00272289,.0000393,0.0408,52.4573,128.4598,201.5787,0,U,40746,999,3994,0,0,0
INTELSAT 34 (IS-34),2015-039A,2026-06-25T03:46:53.812128,1.00270198,.0000478,0.0096,8.4114,12.0602,254.0522,0,U,40874,999,3971,0,-.276E-5,0
EUTELSAT 8 WEST B,2015-039B,2026-06-25T04:00:22.521312,1.00271651,.0003777,0.0626,3.4428,86.6937,235.2667,0,U,40875,999,3973,0,-.56E-6,0
GSAT-6,2015-041A,2026-06-24T23:18:11.916000,1.00270974,.0003154,1.9386,82.4984,4.6373,258.0664,0,U,40880,999,3967,0,-.152E-5,0
INMARSAT 5-F3,2015-042A,2026-06-24T04:56:36.811968,1.00269975,.00003317,0.0191,18.9514,65.9268,81.2411,0,U,40882,999,3964,0,.57E-6,0
MUOS-4,2015-044A,2026-06-25T04:24:05.246784,1.00272255,.0057877,4.3449,42.2977,2.8259,9.2031,0,U,40887,999,3964,0,-.87E-6,0
TJS-1,2015-046A,2026-06-24T21:56:11.050656,1.00270867,.0005866,0.3437,84.9326,3.8258,308.3835,0,U,40892,999,3964,0,-.147E-5,0
EXPRESS-AM8,2015-048A,2026-06-25T03:58:37.687872,1.00271642,.0000458,0.0138,300.1060,98.8790,279.9778,0,U,40895,999,3942,0,-.102E-5,0
BEIDOU-3S IGSO-2S,2015-053A,2026-06-23T16:38:51.586368,1.00258052,.00655545,49.2096,258.7032,192.7581,164.9159,0,U,40938,999,3941,0,-.142E-5,0
SKY MUSTER 1 (NBN1A),2015-054A,2026-06-24T04:11:38.697216,1.00269744,.00019173,0.0229,348.7817,101.9095,24.8025,0,U,40940,999,3933,0,0,0
ARSAT 2,2015-054B,2026-06-24T05:20:41.580672,1.00271963,.00021059,0.0205,42.8115,39.1970,189.5411,0,U,40941,999,3937,0,-.217E-5,0
MORELOS 3,2015-056A,2026-06-25T03:30:24.902784,1.00271819,.0000706,3.1933,15.2725,3.9844,193.5330,0,U,40946,999,3936,0,-.36E-6,0
APSTAR-9,2015-059A,2026-06-24T23:35:10.288608,1.00269586,.0002802,0.0358,300.6044,237.0788,231.2195,0,U,40982,999,3919,0,-.257E-5,0
TURKSAT 4B,2015-060A,2026-06-25T04:16:50.940768,1.00271507,.0002442,0.0178,24.5416,65.0083,297.9240,0,U,40984,999,3917,0,.125E-5,0
ZHONGXING-2C,2015-063A,2026-06-24T18:16:15.495744,1.00268247,.0008017,0.2938,89.4168,95.8408,105.1164,0,U,41021,999,3905,0,-.314E-5,0
GSAT-15,2015-065A,2026-06-24T23:21:19.117152,1.00271631,.000457,0.0518,263.8528,171.0929,282.0258,0,U,41028,999,3887,0,-.249E-5,0
BADR-7 (ARABSAT-6B),2015-065B,2026-06-25T04:10:06.587040,1.00272251,.0003867,0.0384,215.9832,340.3777,165.4511,0,U,41029,999,3884,0,.154E-5,0
