YAMAL 401               
1 40345U 14082A   26175.97244459 -.00000219  00000+0  00000+0 0  9997
2 40345   0.0090 287.4348 0000830 185.3410 240.3727  1.00270538 41990
ASTRA 2G                
1 40364U 14089A   26176.17412068  .00000159  00000+0  00000+0 0  9993
2 40364   0.0500  18.9569 0004858  52.9573 292.2533  1.00272475 42042
FENGYUN 2G              
1 40367U 14090A   26174.90415929 -.00000299  00000+0  00000+0 0  9992
2 40367   5.6568  72.7393 0003593 152.9330 111.5572  1.00269968 42061
MUOS-3                  
1 40374U 15002A   26176.06086487 -.00000123  00000+0  00000+0 0  9992
2 40374   4.5353  43.5534 0052483 177.8333  58.2817  1.00271013 41661
INMARSAT 5-F2           
1 40384U 15005A   26175.08828105 -.00000278  00000+0  00000+0 0  9999
2 40384   0.0185  17.6357 0000402 305.3812 285.9979  1.00272018 41063
ABS-3A                  
1 40424U 15010A   26175.07961463  .00000000  00000+0  00000+0 0  9996
2 40424   0.0420  53.6904 0001763 355.2482 248.9571  1.00270916 41440
EUTELSAT 115 WEST B     
1 40425U 15010B   26175.19905885 -.00000017  00000+0  00000+0 0  9995
2 40425   0.0112 153.7799 0000299  60.4448  14.8861  1.00270289 41460
EXPRESS-AM7             
1 40505U 15012A   26176.17646071  .00000160  00000+0  00000+0 0  9992
2 40505   0.0183 338.2012 0003335 126.5663 272.1002  1.00276117 41082
BEIDOU-3S IGSO-1S       
1 40549U 15019A   26174.79626225 -.00000180  00000+0  00000+0 0  9995
2 40549  49.1813 295.3807 0038874 191.2374 162.8236  1.00249795 41135
THOR 7                  
1 40613U 15022A   26176.16840066  .00000001  00000+0  00000+0 0  9996
2 40613   0.0117  47.2378 0002620  41.4950 244.5390  1.00271362 40899
TURKMENALEM52E/MONACOSAT
1 40617U 15023A   26176.17880072  .00000113  00000+0  00000+0 0  9997
2 40617   0.0182  63.1688 0003058  27.5075 299.0573  1.00275298 40929
DIRECTV 15              
1 40663U 15026A   26176.14811492 -.00000093  00000+0  00000+0 0  9996
2 40663   0.0168  58.8380 0000544 339.4605 185.4343  1.00270309 40544
SKY MEXICO-1            
1 40664U 15026B   26176.15288160 -.00000225  00000+0  00000+0 0  9995
2 40664   0.0187 338.1849 0002517 132.4438 138.9017  1.00271161 40534
METEOSAT-11 (MSG-4)     
1 40732U 15034A   26176.17039399  .00000069  00000+0  00000+0 0  9995
2 40732   3.2206  71.0589 0002283 347.1453 285.9137  1.00265566  7297
STAR ONE C4             
1 40733U 15034B   26175.22767060 -.00000258  00000+0  00000+0 0  9995
2 40733   0.0258  25.3940 0002127  39.0528 219.9095  1.00271482 40088
WGS F7 (USA 263)        
1 40746U 15036A   26175.81822623  .00000000  00000+0  00000+0 0  9997
2 40746   0.0408  52.4573 0000393 128.4598 201.5787  1.00272289 39949
INTELSAT 34 (IS-34)     
1 40874U 15039A   26176.15756727 -.00000276  00000+0  00000+0 0  9997
2 40874   0.0096   8.4114 0000478  12.0602 254.0522  1.00270198 39716
EUTELSAT 8 WEST B       
1 40875U 15039B   26176.16692733 -.00000056  00000+0  00000+0 0  9991
2 40875   0.0626   3.4428 0003777  86.6937 235.2667  1.00271651 39730
GSAT-6                  
1 40880U 15041A   26175.97097125 -.00000152  00000+0  00000+0 0  9999
2 40880   1.9386  82.4984 0003154   4.6373 258.0664  1.00270974 39676
INMARSAT 5-F3           
1 40882U 15042A   26175.20598162  .00000057  00000+0  00000+0 0  9998
2 40882   0.0191  18.9514 0000331  65.9268  81.2411  1.00269975 39644
MUOS-4                  
1 40887U 15044A   26176.18339406 -.00000087  00000+0  00000+0 0  9991
2 40887   4.3449  42.2977 0057877   2.8259   9.2031  1.00272255 39645
TJS-1                   
1 40892U 15046A   26175.91401679 -.00000147  00000+0  00000+0 0  9998
2 40892   0.3437  84.9326 0005866   3.8258 308.3835  1.00270867 39648
EXPRESS-AM8             
1 40895U 15048A   26176.16571398 -.00000102  00000+0  00000+0 0  9998
2 40895   0.0138 300.1060 0000458  98.8790 279.9778  1.00271642 39428
BEIDOU-3S IGSO-2S       
1 40938U 15053A   26174.69365262 -.00000142  00000+0  00000+0 0  9993
2 40938  49.2096 258.7032 0065554 192.7581 164.9159  1.00258052 39416
SKY MUSTER 1 (NBN1A)    
1 40940U 15054A   26175.17475344  .00000000  00000+0  00000+0 0  9996
2 40940   0.0229 348.7817 0001917 101.9095  24.8025  1.00269744 39335
ARSAT 2                 
1 40941U 15054B   26175.22270348 -.00000217  00000+0  00000+0 0  9991
2 40941   0.0205  42.8115 0002105  39.1970 189.5411  1.00271963 39375
MORELOS 3               
1 40946U 15056A   26176.14612156 -.00000036  00000+0  00000+0 0  9996
2 40946   3.1933  15.2725 0000706   3.9844 193.5330  1.00271819 39361
APSTAR-9                
1 40982U 15059A   26175.98275797 -.00000257  00000+0  00000+0 0  9991
2 40982   0.0358 300.6044 0002802 237.0788 231.2195  1.00269586 39197
TURKSAT 4B              
1 40984U 15060A   26176.17836737  .00000125  00000+0  00000+0 0  9997
2 40984   0.0178  24.5416 0002442  65.0083 297.9240  1.00271507 39175
ZHONGXING-2C            
1 41021U 15063A   26175.76129046 -.00000314  00000+0  00000+0 0  9996
2 41021   0.2938  89.4168 0008017  95.8408 105.1164  1.00268247 39053
GSAT-15                 
1 41028U 15065A   26175.97313793 -.00000249  00000+0  00000+0 0  9999
2 41028   0.0518 263.8528 0004570 171.0929 282.0258  1.00271631 38874
BADR-7 (ARABSAT-6B)     
1 41029U 15065B   26176.17368735  .00000154  00000+0  00000+0 0  9993
2 41029   0.0384 215.9832 0003867 340.3777 165.4511  1.00272251 38844
